NORAD_CAT_ID,OBJECT_NAME,OBJECT_TYPE,EPOCH,MEAN_MOTION,ECCENTRICITY,INCLINATION,RA_OF_ASC_NODE,ARG_OF_PERICENTER,MEAN_ANOMALY,BSTAR,MEAN_MOTION_DOT,MEAN_MOTION_DDOT,TLE_LINE0,TLE_LINE1,TLE_LINE2,SEMIMAJOR_AXIS,PERIOD,APOGEE,PERIGEE,DECAYED
51781.0,STARLINK-3580,PAYLOAD,2024-05-24 23:44:58,15.08862907,0.0001219,53.2173,33.6576,87.2557,272.8575,0.00036857,5.586e-05,0.0,0 STARLINK-3580,1 51781U 22017P   24145.98956220  .00005586  00000-0  36857-3 0  9997,2 51781  53.2173  33.6576 0001219  87.2557 272.8575 15.08862907125383,6917.81,95.436,540.519,538.832,0.0
51781.0,STARLINK-3580,PAYLOAD,2024-05-25 09:17:16,15.08865498,0.0001361,53.2174,31.8744,91.108,269.0068,0.00031006,4.653e-05,0.0,0 STARLINK-3580,1 51781U 22017P   24146.38699633  .00004653  00000-0  31006-3 0  9999,2 51781  53.2174  31.8744 0001361  91.1080 269.0068 15.08865498123790,6917.802,95.436,540.609,538.726,0.0
51781.0,STARLINK-3580,PAYLOAD,2024-05-25 20:25:00,15.08814427,0.0001356,53.2175,29.7924,106.8386,253.2755,-0.00072547,-0.00011807,0.0,0 STARLINK-3580,1 51781U 22017P   24146.85070230 -.00011807  00000-0 -72547-3 0  9993,2 51781  53.2175  29.7924 0001356 106.8386 253.2755 15.08814427125510,6917.959,95.439,540.762,538.885,0.0
51781.0,STARLINK-3580,PAYLOAD,2024-05-26 01:11:09,15.08826758,0.0001285,53.2173,28.901,101.4271,258.6865,-0.00027693,-4.691e-05,0.0,0 STARLINK-3580,1 51781U 22017P   24147.04941946 -.00004691  00000-0 -27693-3 0  9991,2 51781  53.2173  28.9010 0001285 101.4271 258.6865 15.08826758125544,6917.921,95.438,540.675,538.897,0.0
51781.0,STARLINK-3580,PAYLOAD,2024-05-26 20:15:47,15.08833835,0.0001203,53.2164,25.3327,78.0664,282.0463,-9.3802e-05,-1.78e-05,0.0,0 STARLINK-3580,1 51781U 22017P   24147.84429959 -.00001780  00000-0 -93802-4 0  9996,2 51781  53.2164  25.3327 0001203  78.0664 282.0463 15.08833835125663,6917.899,95.438,540.596,538.932,0.0
51781.0,STARLINK-3580,PAYLOAD,2024-05-26 21:51:10,15.08843759,0.0001412,53.2169,25.0357,107.8977,252.2169,9.7777e-06,-1.32e-06,0.0,0 STARLINK-3580,1 51781U 22017P   24147.91053453 -.00000132  00000-0  97777-5 0  9991,2 51781  53.2169  25.0357 0001412 107.8977 252.2169 15.08843759124025,6917.869,95.437,540.711,538.757,0.0
51781.0,STARLINK-3580,PAYLOAD,2024-05-27 01:01:56,15.08846118,0.0001308,53.2169,24.4407,88.3313,271.7829,8.7494e-05,1.105e-05,0.0,0 STARLINK-3580,1 51781U 22017P   24148.04301387  .00001105  00000-0  87494-4 0  9992,2 51781  53.2169  24.4407 0001308  88.3313 271.7829 15.08846118125690,6917.862,95.437,540.632,538.822,0.0
51781.0,STARLINK-3580,PAYLOAD,2024-05-27 08:58:51,15.08858744,0.0002281,53.2184,22.9532,54.4849,305.6355,2.4615e-05,1.04e-06,0.0,0 STARLINK-3580,1 51781U 22017P   24148.37420819  .00000104  00000-0  24615-4 0  9994,2 51781  53.2184  22.9532 0002281  54.4849 305.6355 15.08858744125743,6917.823,95.436,541.266,538.11,0.0
51781.0,STARLINK-3580,PAYLOAD,2024-05-27 20:06:34,15.08833115,0.0001238,53.218,20.8726,96.2455,263.8678,0.00025958,3.845e-05,0.0,0 STARLINK-3580,1 51781U 22017P   24148.83790159  .00003845  00000-0  25958-3 0  9997,2 51781  53.2180  20.8726 0001238  96.2455 263.8678 15.08833115125815,6917.901,95.438,540.623,538.91,0.0
51781.0,STARLINK-3580,PAYLOAD,2024-05-27 21:41:57,15.08836158,0.0001218,53.2173,20.575,96.8457,263.2674,0.00028562,4.26e-05,0.0,0 STARLINK-3580,1 51781U 22017P   24148.90414323  .00004260  00000-0  28562-3 0  9997,2 51781  53.2173  20.5750 0001218  96.8457 263.2674 15.08836158124175,6917.892,95.438,540.6,538.915,0.0
51781.0,STARLINK-3580,PAYLOAD,2024-05-28 08:49:39,15.08843335,0.0001325,53.2176,18.4946,86.002,274.1124,0.00028372,4.231e-05,0.0,0 STARLINK-3580,1 51781U 22017P   24149.36782219  .00004231  00000-0  28372-3 0  9997,2 51781  53.2176  18.4946 0001325  86.0020 274.1124 15.08843335124241,6917.87,95.437,540.652,538.819,0.0
51781.0,STARLINK-3580,PAYLOAD,2024-05-28 21:32:44,15.08843111,0.0001284,53.2179,16.1126,98.0287,262.0851,7.4954e-05,9.05e-06,0.0,0 STARLINK-3580,1 51781U 22017P   24149.89774158  .00000905  00000-0  74954-4 0  9990,2 51781  53.2179  16.1126 0001284  98.0287 262.0851 15.08843111125977,6917.871,95.437,540.624,538.848,0.0
51781.0,STARLINK-3580,PAYLOAD,2024-05-29 19:48:08,15.08842366,0.0001223,53.2176,11.9479,92.5708,267.5424,0.00012192,1.653e-05,0.0,0 STARLINK-3580,1 51781U 22017P   24150.82510245  .00001653  00000-0  12192-3 0  9996,2 51781  53.2176  11.9479 0001223  92.5708 267.5424 15.08842366124468,6917.873,95.437,540.584,538.892,0.0
51781.0,STARLINK-3580,PAYLOAD,2024-05-30 00:34:18,15.08843282,0.0001238,53.2185,11.057,99.6609,260.4523,0.00010244,1.343e-05,0.0,0 STARLINK-3580,1 51781U 22017P   24151.02382136  .00001343  00000-0  10244-3 0  9997,2 51781  53.2185  11.0570 0001238  99.6609 260.4523 15.08843282126142,6917.87,95.437,540.592,538.879,0.0
51781.0,STARLINK-3580,PAYLOAD,2024-05-30 19:38:55,15.08844018,0.00012,53.2181,7.4885,99.045,261.0678,0.00012584,1.716e-05,0.0,0 STARLINK-3580,1 51781U 22017P   24151.81870047  .00001716  00000-0  12584-3 0  9990,2 51781  53.2181   7.4885 0001200  99.0450 261.0678 15.08844018124619,6917.868,95.437,540.563,538.903,0.0
51781.0,STARLINK-3580,PAYLOAD,2024-05-31 00:25:05,15.08843863,0.0001217,53.2181,6.5962,100.8533,259.2596,0.00011531,1.548e-05,0.0,0 STARLINK-3580,1 51781U 22017P   24152.01742022  .00001548  00000-0  11531-3 0  9998,2 51781  53.2181   6.5962 0001217 100.8533 259.2596 15.08843863124644,6917.869,95.437,540.575,538.892,0.0
51781.0,STARLINK-3580,PAYLOAD,2024-05-31 21:05:06,15.08832945,0.0001245,53.2181,2.7327,83.8091,276.3043,1.7554e-05,-9e-08,0.0,0 STARLINK-3580,1 51781U 22017P   24152.87854731 -.00000009  00000-0  17554-4 0  9997,2 51781  53.2181   2.7327 0001245  83.8091 276.3043 15.08832945126421,6917.902,95.438,540.628,538.906,0.0
51781.0,STARLINK-3580,PAYLOAD,2024-06-01 06:37:24,15.08845713,0.0001293,53.2188,0.9478,85.4673,274.6467,0.00014383,2.002e-05,0.0,0 STARLINK-3580,1 51781U 22017P   24153.27598102  .00002002  00000-0  14383-3 0  9999,2 51781  53.2188   0.9478 0001293  85.4673 274.6467 15.08845713126486,6917.863,95.437,540.622,538.833,0.0
51781.0,STARLINK-3580,PAYLOAD,2024-06-01 20:55:53,15.08835424,0.0001304,53.218,358.2734,94.399,265.7152,-3.6105e-06,-3.45e-06,0.0,0 STARLINK-3580,1 51781U 22017P   24153.87214821 -.00000345  00000-0 -36105-5 0  9996,2 51781  53.2180 358.2734 0001304  94.3990 265.7152 15.08835424126576,6917.894,95.438,540.661,538.857,0.0
51781.0,STARLINK-3580,PAYLOAD,2024-06-02 12:49:45,15.08838737,0.0001662,53.2187,355.3005,91.5505,268.5678,0.00011092,1.478e-05,0.0,0 STARLINK-3580,1 51781U 22017P   24154.53454990  .00001478  00000-0  11092-3 0  9995,2 51781  53.2187 355.3005 0001662  91.5505 268.5678 15.08838737125023,6917.884,95.438,540.899,538.599,0.0
51781.0,STARLINK-3580,PAYLOAD,2024-06-03 06:18:59,15.08843538,0.0001925,53.2167,352.026,82.5026,277.6184,0.00022249,3.255e-05,0.0,0 STARLINK-3580,1 51781U 22017P   24155.26319105  .00003255  00000-0  22249-3 0  9995,2 51781  53.2167 352.0260 0001925  82.5026 277.6184 15.08843538126780,6917.87,95.437,541.066,538.403,0.0
51781.0,STARLINK-3580,PAYLOAD,2024-06-03 22:12:50,15.08848005,0.0001378,53.2167,349.0535,84.1072,276.0077,0.00024795,3.661e-05,0.0,0 STARLINK-3580,1 51781U 22017P   24155.92558774  .00003661  00000-0  24795-3 0  9994,2 51781  53.2167 349.0535 0001378  84.1072 276.0077 15.08848005125239,6917.856,95.437,540.674,538.768,0.0
51781.0,STARLINK-3580,PAYLOAD,2024-06-04 12:31:18,15.08855634,0.0002557,53.2085,346.3751,87.0938,273.0346,0.00037437,5.677e-05,0.0,0 STARLINK-3580,1 51781U 22017P   24156.52174570  .00005677  00000-0  37437-3 0  9995,2 51781  53.2085 346.3751 0002557  87.0938 273.0346 15.08855634126975,6917.833,95.437,541.466,537.929,0.0
51781.0,STARLINK-3580,PAYLOAD,2024-06-04 18:52:51,15.08839954,0.0001548,53.2105,345.1863,90.8946,269.2223,6.2372e-05,7.05e-06,0.0,0 STARLINK-3580,1 51781U 22017P   24156.78670907  .00000705  00000-0  62372-4 0  9992,2 51781  53.2105 345.1863 0001548  90.8946 269.2223 15.08839954127013,6917.881,95.438,540.816,538.675,0.0
51781.0,STARLINK-3580,PAYLOAD,2024-06-04 22:03:37,15.08840496,0.0001545,53.2117,344.5915,90.9227,269.1942,5.9349e-05,6.57e-06,0.0,0 STARLINK-3580,1 51781U 22017P   24156.91918901  .00000657  00000-0  59349-4 0  9992,2 51781  53.2117 344.5915 0001545  90.9227 269.1942 15.08840496125385,6917.879,95.438,540.813,538.675,0.0
51781.0,STARLINK-3580,PAYLOAD,2024-06-05 06:00:33,15.08847424,0.0001469,53.2184,343.1056,93.515,266.601,0.00021697,3.167e-05,0.0,0 STARLINK-3580,1 51781U 22017P   24157.25038630  .00003167  00000-0  21697-3 0  9995,2 51781  53.2184 343.1056 0001469  93.5150 266.6010 15.08847424125431,6917.858,95.437,540.739,538.706,0.0
51781.0,STARLINK-3580,PAYLOAD,2024-06-05 21:54:24,15.08840911,0.0001571,53.2194,340.1309,112.0061,248.1098,-0.00012016,-2.2e-05,0.0,0 STARLINK-3580,1 51781U 22017P   24157.91278883 -.00002200  00000-0 -12016-3 0  9998,2 51781  53.2194 340.1309 0001571 112.0061 248.1098 15.08840911125538,6917.878,95.437,540.829,538.656,0.0
51781.0,STARLINK-3580,PAYLOAD,2024-06-06 21:45:12,15.08839877,0.0001552,53.2154,335.6731,89.1727,270.9443,0.00020485,2.974e-05,0.0,0 STARLINK-3580,1 51781U 22017P   24158.90639506  .00002974  00000-0  20485-3 0  9996,2 51781  53.2154 335.6731 0001552  89.1727 270.9443 15.08839877125686,6917.881,95.438,540.819,538.672,0.0
51781.0,STARLINK-3580,PAYLOAD,2024-06-07 18:25:13,15.08837031,0.0001515,53.2137,331.8063,92.4051,267.7115,0.00015247,2.139e-05,0.0,0 STARLINK-3580,1 51781U 22017P   24159.76751887  .00002139  00000-0  15247-3 0  9991,2 51781  53.2137 331.8063 0001515  92.4051 267.7115 15.08837031127467,6917.889,95.438,540.803,538.706,0.0
51781.0,STARLINK-3580,PAYLOAD,2024-06-07 21:35:59,15.08838003,0.0001433,53.2133,331.211,89.7201,270.3955,0.00015444,2.171e-05,0.0,0 STARLINK-3580,1 51781U 22017P   24159.89999868  .00002171  00000-0  15444-3 0  9993,2 51781  53.2133 331.2110 0001433  89.7201 270.3955 15.08838003125836,6917.886,95.438,540.743,538.76,0.0
